{"type": "FeatureCollection", "features": [ {"type": "Feature", "properties": {"norad_id": 31010, "name": "FENGYUN 1C DEB", "group": "fengyun-1c-debris", "lat": -52.88513882522227, "lon": 167.9958078174977, "alt_km": 732.46052851072, "timestamp": "2025-12-26T11:25:45.473984+00:00", "meta": {"OBJECT_NAME": "FENGYUN 1C DEB", "OBJECT_ID": "1999-025BDC", "EPOCH": "2025-12-25T15:28:22.341792", "MEAN_MOTION": 14.26000205, "ECCENTRICITY": 0.011344, "INCLINATION": 101.7251, "RA_OF_ASC_NODE": 150.957, "ARG_OF_PERICENTER": 320.7007, "MEAN_ANOMALY": 38.5969, "EPHEMERIS_TYPE": 0, "CLASSIFICATION_TYPE": "U", "NORAD_CAT_ID": 31010, "ELEMENT_SET_NO": 999, "REV_AT_EPOCH": 95813, "BSTAR": 0.0036132, "MEAN_MOTION_DOT": 9.17e-05, "MEAN_MOTION_DDOT": 0}, "tle": {"line1": "1 31010U 99025BDC 25359.64470303  .00009170  00000+0  36132-2 0  9994", "line2": "2 31010 101.7251 150.9570 0113440 320.7007  38.5969 14.26000205958139"}}, "geometry": {"type": "Point", "coordinates": [167.9958078174977, -52.88513882522227]}}, {"type": "Feature", "properties": {"norad_id": 31012, "name": "FENGYUN 1C DEB", "group": "fengyun-1c-debris", "lat": 38.40917946053314, "lon": 85.99870624270457, "alt_km": 775.649697416593, "timestamp": "2025-12-26T11:25:45.473994+00:00", "meta": {"OBJECT_NAME": "FENGYUN 1C DEB", "OBJECT_ID": "1999-025BDE", "EPOCH": "2025-12-25T16:31:40.864224", "MEAN_MOTION": 14.27874514, "ECCENTRICITY": 0.00816684, "INCLINATION": 98.9114, "RA_OF_ASC_NODE": 258.0495, "ARG_OF_PERICENTER": 213.4298, "MEAN_ANOMALY": 202.3807, "EPHEMERIS_TYPE": 0, "CLASSIFICATION_TYPE": "U", "NORAD_CAT_ID": 31012, "ELEMENT_SET_NO": 999, "REV_AT_EPOCH": 97932, "BSTAR": 0.00017105569, "MEAN_MOTION_DOT": 3.92e-06, "MEAN_MOTION_DDOT": 0}, "tle": {"line1": "1 31012U 99025BDE 25359.68866741  .00000392  00000+0  17106-3 0  9993", "line2": "2 31012  98.9114 258.0495 0081668 213.4298 202.3807 14.27874514979327"}}, "geometry": {"type": "Point", "coordinates": [85.99870624270457, 38.40917946053314]}}, {"type": "Feature", "properties": {"norad_id": 31014, "name": "FENGYUN 1C DEB", "group": "fengyun-1c-debris", "lat": 26.36133777261287, "lon": -28.803866331849854, "alt_km": 938.0441272016333, "timestamp": "2025-12-26T11:25:45.474004+00:00", "meta": {"OBJECT_NAME": "FENGYUN 1C DEB", "OBJECT_ID": "1999-025BDG", "EPOCH": "2025-12-25T11:52:46.987392", "MEAN_MOTION": 13.9849269, "ECCENTRICITY": 0.0088554, "INCLINATION": 98.8696, "RA_OF_ASC_NODE": 334.6853, "ARG_OF_PERICENTER": 158.3429, "MEAN_ANOMALY": 331.8841, "EPHEMERIS_TYPE": 0, "CLASSIFICATION_TYPE": "U", "NORAD_CAT_ID": 31014, "ELEMENT_SET_NO": 999, "REV_AT_EPOCH": 96014, "BSTAR": -0.00010465, "MEAN_MOTION_DOT": -1.97e-06, "MEAN_MOTION_DDOT": 0}, "tle": {"line1": "1 31014U 99025BDG 25359.49498828 -.00000197  00000+0 -10465-3 0  9997", "line2": "2 31014  98.8696 334.6853 0088554 158.3429 331.8841 13.98492690960140"}}, "geometry": {"type": "Point", "coordinates": [-28.803866331849854, 26.36133777261287]}}, {"type": "Feature", "properties": {"norad_id": 31016, "name": "FENGYUN 1C DEB", "group": "fengyun-1c-debris", "lat": -74.82586334361214, "lon": 49.06717189795177, "alt_km": 744.4855901437386, "timestamp": "2025-12-26T11:25:45.474013+00:00", "meta": {"OBJECT_NAME": "FENGYUN 1C DEB", "OBJECT_ID": "1999-025BDJ", "EPOCH": "2025-12-26T00:18:03.537216", "MEAN_MOTION": 14.30514614, "ECCENTRICITY": 0.0112228, "INCLINATION": 98.4358, "RA_OF_ASC_NODE": 15.4434, "ARG_OF_PERICENTER": 234.6044, "MEAN_ANOMALY": 180.5946, "EPHEMERIS_TYPE": 0, "CLASSIFICATION_TYPE": "U", "NORAD_CAT_ID": 31016, "ELEMENT_SET_NO": 999, "REV_AT_EPOCH": 97660, "BSTAR": 0.00025422, "MEAN_MOTION_DOT": 6.66e-06, "MEAN_MOTION_DDOT": 0}, "tle": {"line1": "1 31016U 99025BDJ 25360.01254094  .00000666  00000+0  25422-3 0  9992", "line2": "2 31016  98.4358  15.4434 0112228 234.6044 180.5946 14.30514614976600"}}, "geometry": {"type": "Point", "coordinates": [49.06717189795177, -74.82586334361214]}}, {"type": "Feature", "properties": {"norad_id": 31017, "name": "FENGYUN 1C DEB", "group": "fengyun-1c-debris", "lat": -81.31163396884581, "lon": 77.39212085796629, "alt_km": 809.0883050267594, "timestamp": "2025-12-26T11:25:45.474023+00:00", "meta": {"OBJECT_NAME": "FENGYUN 1C DEB", "OBJECT_ID": "1999-025BDK", "EPOCH": "2025-12-25T22:28:28.048800", "MEAN_MOTION": 14.0884257, "ECCENTRICITY": 0.0112574, "INCLINATION": 98.6808, "RA_OF_ASC_NODE": 345.58, "ARG_OF_PERICENTER": 312.7121, "MEAN_ANOMALY": 101.7676, "EPHEMERIS_TYPE": 0, "CLASSIFICATION_TYPE": "U", "NORAD_CAT_ID": 31017, "ELEMENT_SET_NO": 999, "REV_AT_EPOCH": 96482, "BSTAR": 0.00035906, "MEAN_MOTION_DOT": 6.14e-06, "MEAN_MOTION_DDOT": 0}, "tle": {"line1": "1 31017U 99025BDK 25359.93643575  .00000614  00000+0  35906-3 0  9999", "line2": "2 31017  98.6808 345.5800 0112574 312.7121 101.7676 14.08842570964821"}}, "geometry": {"type": "Point", "coordinates": [77.39212085796629, -81.31163396884581]}}, {"type": "Feature", "properties": {"norad_id": 31018, "name": "FENGYUN 1C DEB", "group": "fengyun-1c-debris", "lat": 3.8170162114592214, "lon": -91.9456639350611, "alt_km": 836.6355013359798, "timestamp": "2025-12-26T11:25:45.474032+00:00", "meta": {"OBJECT_NAME": "FENGYUN 1C DEB", "OBJECT_ID": "1999-025BDL", "EPOCH": "2025-12-23T11:25:53.699808", "MEAN_MOTION": 14.16987914, "ECCENTRICITY": 0.00583651, "INCLINATION": 99.0245, "RA_OF_ASC_NODE": 84.4038, "ARG_OF_PERICENTER": 95.8947, "MEAN_ANOMALY": 264.8883, "EPHEMERIS_TYPE": 0, "CLASSIFICATION_TYPE": "U", "NORAD_CAT_ID": 31018, "ELEMENT_SET_NO": 999, "REV_AT_EPOCH": 96207, "BSTAR": 0.0015318638, "MEAN_MOTION_DOT": 3.085e-05, "MEAN_MOTION_DDOT": 0}, "tle": {"line1": "1 31018U 99025BDL 25357.47631597  .00003085  00000+0  15319-2 0  9998", "line2": "2 31018  99.0245  84.4038 0058365  95.8947 264.8883 14.16987914962073"}}, "geometry": {"type": "Point", "coordinates": [-91.9456639350611, 3.8170162114592214]}}, {"type": "Feature", "properties": {"norad_id": 31019, "name": "FENGYUN 1C DEB", "group": "fengyun-1c-debris", "lat": 42.159198295800024, "lon": 21.709078069350017, "alt_km": 2126.186267192089, "timestamp": "2025-12-26T11:25:45.474042+00:00", "meta": {"OBJECT_NAME": "FENGYUN 1C DEB", "OBJECT_ID": "1999-025BDM", "EPOCH": "2025-12-21T19:04:30.482400", "MEAN_MOTION": 11.82992381, "ECCENTRICITY": 0.11182228, "INCLINATION": 98.7026, "RA_OF_ASC_NODE": 190.6549, "ARG_OF_PERICENTER": 266.0498, "MEAN_ANOMALY": 114.5316, "EPHEMERIS_TYPE": 0, "CLASSIFICATION_TYPE": "U", "NORAD_CAT_ID": 31019, "ELEMENT_SET_NO": 999, "REV_AT_EPOCH": 55288, "BSTAR": 0.0023777333, "MEAN_MOTION_DOT": 8.64e-06, "MEAN_MOTION_DDOT": 0}, "tle": {"line1": "1 31019U 99025BDM 25355.79479725  .00000864  00000+0  23777-2 0  9994", "line2": "2 31019  98.7026 190.6549 1118222 266.0498 114.5316 11.82992381552887"}}, "geometry": {"type": "Point", "coordinates": [21.709078069350017, 42.159198295800024]}}, {"type": "Feature", "properties": {"norad_id": 31021, "name": "FENGYUN 1C DEB", "group": "fengyun-1c-debris", "lat": -31.1154699920933, "lon": 116.49570713193935, "alt_km": 769.1273189787407, "timestamp": "2025-12-26T11:25:45.474050+00:00", "meta": {"OBJECT_NAME": "FENGYUN 1C DEB", "OBJECT_ID": "1999-025BDP", "EPOCH": "2025-12-25T01:23:52.741248", "MEAN_MOTION": 14.75458372, "ECCENTRICITY": 0.02681902, "INCLINATION": 98.3478, "RA_OF_ASC_NODE": 109.946, "ARG_OF_PERICENTER": 202.566, "MEAN_ANOMALY": 156.3576, "EPHEMERIS_TYPE": 0, "CLASSIFICATION_TYPE": "U", "NORAD_CAT_ID": 31021, "ELEMENT_SET_NO": 999, "REV_AT_EPOCH": 73614, "BSTAR": 0.00093996638, "MEAN_MOTION_DOT": 0.00011493, "MEAN_MOTION_DDOT": 0}, "tle": {"line1": "1 31021U 99025BDP 25359.05824932  .00011493  00000+0  93997-3 0  9996", "line2": "2 31021  98.3478 109.9460 0268190 202.5660 156.3576 14.75458372736144"}}, "geometry": {"type": "Point", "coordinates": [116.49570713193935, -31.1154699920933]}}, {"type": "Feature", "properties": {"norad_id": 31022, "name": "FENGYUN 1C DEB", "group": "fengyun-1c-debris", "lat": -15.337884025799656, "lon": -112.90677893556693, "alt_km": 945.5857073797315, "timestamp": "2025-12-26T11:25:45.474060+00:00", "meta": {"OBJECT_NAME": "FENGYUN 1C DEB", "OBJECT_ID": "1999-025BDQ", "EPOCH": "2025-12-23T23:03:36.550080", "MEAN_MOTION": 13.90460502, "ECCENTRICITY": 0.0110336, "INCLINATION": 99.5163, "RA_OF_ASC_NODE": 241.8824, "ARG_OF_PERICENTER": 91.8783, "MEAN_ANOMALY": 269.5015, "EPHEMERIS_TYPE": 0, "CLASSIFICATION_TYPE": "U", "NORAD_CAT_ID": 31022, "ELEMENT_SET_NO": 999, "REV_AT_EPOCH": 62164, "BSTAR": 0.00047398, "MEAN_MOTION_DOT": 5.73e-06, "MEAN_MOTION_DDOT": 0}, "tle": {"line1": "1 31022U 99025BDQ 25357.96083970  .00000573  00000+0  47398-3 0  9995", "line2": "2 31022  99.5163 241.8824 0110336  91.8783 269.5015 13.90460502621649"}}, "geometry": {"type": "Point", "coordinates": [-112.90677893556693, -15.337884025799656]}}, {"type": "Feature", "properties": {"norad_id": 31023, "name": "FENGYUN 1C DEB", "group": "fengyun-1c-debris", "lat": 22.002085265160364, "lon": 169.1729156243825, "alt_km": 816.1805529137982, "timestamp": "2025-12-26T11:25:45.474087+00:00", "meta": {"OBJECT_NAME": "FENGYUN 1C DEB", "OBJECT_ID": "1999-025BDR", "EPOCH": "2025-12-20T19:49:13.315584", "MEAN_MOTION": 14.06693358, "ECCENTRICITY": 0.00824044, "INCLINATION": 98.8149, "RA_OF_ASC_NODE": 340.0727, "ARG_OF_PERICENTER": 198.6079, "MEAN_ANOMALY": 161.2072, "EPHEMERIS_TYPE": 0, "CLASSIFICATION_TYPE": "U", "NORAD_CAT_ID": 31023, "ELEMENT_SET_NO": 999, "REV_AT_EPOCH": 69615, "BSTAR": 0.00023624773, "MEAN_MOTION_DOT": 3.61e-06, "MEAN_MOTION_DDOT": 0}, "tle": {"line1": "1 31023U 99025BDR 25354.82584856  .00000361  00000+0  23625-3 0  9999", "line2": "2 31023  98.8149 340.0727 0082404 198.6079 161.2072 14.06693358696152"}}, "geometry": {"type": "Point", "coordinates": [169.1729156243825, 22.002085265160364]}}]}